LEMUR-2-AMANDA-SVANTE   
1 48269U 21034B   26068.77637527  .00030872  00000+0  11134-2 0  9996
2 48269  97.5829 144.8625 0002703 205.4721 154.6385 15.28469003265849
STARLINK-36078          
1 67050U 25294W   26068.30866880  .00012880  00000+0  47667-3 0  9992
2 67050  43.0053  39.9878 0001366 280.7022  79.3676 15.27585363 14745
